SL-16 R/B               
1 28353U 04021B   25172.38170349  .00000077  00000+0  65077-4 0  9992
2 28353  71.0006  60.8490 0003125  69.9971 290.1487 14.14547437 85886
CZ-4B R/B               
1 28415U 04035C   25172.81240166  .00004949  00000+0  20204-3 0  9993
2 28415  97.3793 205.6567 0036320 168.0370 192.1739 15.24255094140116
CZ-2C R/B               
1 28480U 04046B   25172.21148120  .00000069  00000+0  41115-4 0  9992
2 28480  98.1940  98.5454 0139067 207.6801 151.6930 14.26836949 71218
ARIANE 5 R/B            
1 28499U 04049H   25172.84669322  .00000785  00000+0  94091-4 0  9992
2 28499  98.2346 327.1670 0086566 115.9246 245.0921 14.84530922107101
CZ-2D R/B               
1 28738U 05024B   25172.43025812  .00012630  00000+0  27922-3 0  9997
2 28738  97.3670 176.5836 0004100 250.7814 109.2990 15.43964760 99294
ALOS (DAICHI)           
1 28931U 06002A   25172.80725303  .00001021  00000+0  18347-3 0  9995
2 28931  98.0848 125.9175 0002132  68.7031 291.4402 14.68746138 35553
H-2A R/B                
1 28932U 06002B   25172.79279124  .00004461  00000+0  26012-3 0  9998
2 28932  98.2127 294.1663 0059274  46.9677 313.6494 15.11069941 55076
RESURS-DK 1             
1 29228U 06021A   25172.78081626  .00001474  00000+0  94383-4 0  9993
2 29228  69.9307 190.9374 0004608 198.1510 161.9491 15.11007896 48118
GENESIS 1               
1 29252U 06029A   25170.95765255  .00520956  13957-3  63293-3 0  9997
2 29252  64.4915 325.3465 0026504 280.1893 180.1050 16.07053968 47985
CZ-4B R/B               
1 29507U 06046C   25172.56659248  .00003011  00000+0  16747-3 0  9993
2 29507  97.5951 213.1700 0037278  90.4446 270.1057 15.13860040 20506
CZ-2C R/B               
1 31114U 07010B   25172.76655995  .00000058  00000+0  45715-4 0  9995
2 31114  98.3803 294.3637 0058476 334.0116  25.8128 14.20130817942698
COSMO-SKYMED 1          
1 31598U 07023A   25172.82310907  .00000224  00000+0  27051-4 0  9991
2 31598  97.8873 357.2762 0001485  97.7935 262.3452 14.93103445975986
GENESIS 2               
1 31789U 07028A   25172.61435654  .00088155  00000+0  44011-3 0  9995
2 31789  64.4746  14.3596 0022483 300.8605  59.0337 15.80993730994813
COSMOS 2428             
1 31792U 07029A   25172.85922295  .00000341  00000+0  20893-3 0  9991
2 31792  70.9386  30.8656 0005501 262.0219  98.0277 14.12864591927336
SL-16 R/B               
1 31793U 07029B   25172.52577391 -.00000277  00000+0 -11886-3 0  9991
2 31793  70.9760   1.3469 0002148 279.0348 111.5542 14.14785893928430
KORONAS-FOTON           
1 33504U 09003A   25172.59033743  .00006842  00000+0  18843-3 0  9994
2 33504  82.4318 185.8032 0012227  22.6783 337.4998 15.36875029905690
CZ-2C R/B               
1 37731U 11030B   25172.56611550  .00000859  00000+0  11703-3 0  9998
2 37731  97.8152 130.9356 0054843 119.1932 333.4017 14.80224092751457
H-2A R/B                
1 38341U 12025E   25172.59507572  .00002392  00000+0  23115-3 0  9996
2 38341  98.4373 114.9207 0047984  85.9810 274.6890 14.93047512709235
SHIJIAN-16 (SJ-16)      
1 39358U 13057A   25172.82017392  .00001290  00000+0  13180-3 0  9990
2 39358  74.9722 318.5313 0016783  24.3249 335.8727 14.91380323632677
SL-4 R/B                
1 39679U 14021B   25172.38119020  .00006202  00000+0  17516-3 0  9995
2 39679  51.6078 164.1647 0111720 235.9748 123.0584 15.31778676616133
ALOS-2                  
1 39766U 14029A   25172.79129054  .00001113  00000+0  15597-3 0  9996
2 39766  97.9222 270.1272 0001624 101.9617 258.1777 14.79456051598329
YAOGAN-29               
1 41038U 15069A   25172.84748692  .00000321  00000+0  46615-4 0  9993
2 41038  98.0338 195.2887 0002906 103.4418 256.7119 14.82647654517222
ASTRO-H (HITOMI)        
1 41337U 16012A   25172.48123108  .00001866  00000+0  11209-3 0  9998
2 41337  30.9991 239.4863 0010065 229.4804 130.4957 15.08083323512748
HXMT (HUIYAN)           
1 42758U 17034A   25172.85702701  .00003648  00000+0  20787-3 0  9995
2 42758  43.0157  22.5576 0034140  27.1621 333.1003 15.13898649442980
CZ-2C R/B               
1 43521U 18054D   25172.52402627  .00023763  00000+0  36195-3 0  9995
2 43521  35.1387 258.4975 0032758 291.5031  68.2205 15.52884980387821
SAOCOM 1A               
1 43641U 18076A   25172.83221110  .00000302  00000+0  44533-4 0  9992
2 43641  97.8888 359.7455 0001414  88.1174 272.0201 14.82145391362727
H-2A R/B                
1 43682U 18084L   25172.40947443  .00009289  00000+0  31126-3 0  9999
2 43682  98.8759 331.5431 0032148 201.1496 158.8413 15.30730159365684
SAOCOM 1B               
1 46265U 20059A   25172.79597884  .00000293  00000+0  43399-4 0  9998
2 46265  97.8888 358.8126 0001517  93.4582 266.6805 14.82150309260117
CSS (TIANHE)            
1 48274U 21035A   25172.86933853  .00022224  00000+0  27923-3 0  9995
2 48274  41.4648 352.2404 0004273 160.4142 199.6861 15.59155043236883
COSMOS 2550             
1 48865U 21056A   25172.88266981  .00002427  00000+0  79578-4 0  9994
2 48865  67.1420 109.8963 0008394 269.0787  90.9406 15.33830198223479
CZ-2C R/B               
1 52794U 22058K   25172.39706722  .00008528  00000+0  20693-3 0  9992
2 52794  50.1918 205.9536 0055529 193.9391 166.0044 15.40295735169709
GSLV R/B                
1 54149U 22138AN  25172.46952239  .00001649  00000+0  14805-3 0  9996
2 54149  87.3790 253.8285 0023200  26.2276 334.0124 14.94862656144887
XRISM                   
1 57800U 23137A   25172.67947344  .00002359  00000+0  14315-3 0  9992
2 57800  31.0004 167.1655 0008153 296.6004  63.3797 15.08148965 98396
ACS3                    
1 59588U 24077B   25172.39259984  .00009617  00000+0  93584-2 0  9994
2 59588  97.4695 165.8362 0067824  78.2498 282.6258 13.78499165 58079
